NORAD_CAT_ID,OBJECT_NAME,OBJECT_TYPE,EPOCH,MEAN_MOTION,ECCENTRICITY,INCLINATION,RA_OF_ASC_NODE,ARG_OF_PERICENTER,MEAN_ANOMALY,BSTAR,MEAN_MOTION_DOT,MEAN_MOTION_DDOT,TLE_LINE0,TLE_LINE1,TLE_LINE2,SEMIMAJOR_AXIS,PERIOD,APOGEE,PERIGEE,DECAYED
49415.0,STARLINK-3159,PAYLOAD,2022-08-05 11:45:05,15.08844476,0.0001858,53.218,349.824,50.7249,309.3908,8.1232e-05,1.005e-05,0.0,0 STARLINK-3159,1 49415U 21104H   22217.48965071  .00001005  00000-0  81232-4 0  9991,2 49415  53.2180 349.8240 0001858  50.7249 309.3908 15.08844476 40668,6917.8669999999975,95.437,541.0169999999998,538.446,0.0
49415.0,STARLINK-3159,PAYLOAD,2022-08-05 18:06:38,15.08848487,0.0001898,53.218,348.6348,48.959,311.1566,9.2782e-05,1.189e-05,0.0,0 STARLINK-3159,1 49415U 21104H   22217.75460793  .00001189  00000-0  92782-4 0  9997,2 49415  53.2180 348.6348 0001898  48.9590 311.1566 15.08848487 40708,6917.854,95.437,541.0319999999998,538.406,0.0
49415.0,STARLINK-3159,PAYLOAD,2022-08-06 11:35:53,15.08837764,0.0001784,53.2187,345.3642,55.5729,304.5432,0.00011527,1.547e-05,0.0,0 STARLINK-3159,1 49415U 21104H   22218.48325457  .00001547  00000-0  11527-3 0  9990,2 49415  53.2187 345.3642 0001784  55.5729 304.5432 15.08837764 41905,6917.887,95.438,540.986,538.518,0.0
49415.0,STARLINK-3159,PAYLOAD,2022-08-06 17:57:25,15.0884076,0.0001859,53.2182,344.1747,50.575,309.5406,2.9621e-05,1.83e-06,0.0,0 STARLINK-3159,1 49415U 21104H   22218.74821463  .00000183  00000-0  29621-4 0  9997,2 49415  53.2182 344.1747 0001859  50.5750 309.5406 15.08840760 40854,6917.878000000002,95.438,541.029,538.457,0.0
49415.0,STARLINK-3159,PAYLOAD,2022-08-07 13:02:02,15.08851203,0.0001754999999999,53.2178,340.6057,51.0299,309.0849,8.3492e-05,1.041e-05,0.0,0 STARLINK-3159,1 49415U 21104H   22219.54308629  .00001041  00000-0  83492-4 0  9990,2 49415  53.2178 340.6057 0001755  51.0299 309.0849 15.08851203 40976,6917.846,95.437,540.925,538.497,0.0
49415.0,STARLINK-3159,PAYLOAD,2022-08-07 17:48:12,15.0883971,0.0001863,53.2179,339.714,50.0788,310.0367,-1.4803e-05,-5.24e-06,0.0,0 STARLINK-3159,1 49415U 21104H   22219.74181574 -.00000524  00000-0 -14803-4 0  9997,2 49415  53.2179 339.7140 0001863  50.0788 310.0367 15.08839710 41002,6917.880999999999,95.438,541.035,538.457,0.0
49415.0,STARLINK-3159,PAYLOAD,2022-08-08 11:17:26,15.08849295,0.000181,53.2178,336.4430000000001,50.0285,310.0866,0.00018715,2.692e-05,0.0,0 STARLINK-3159,1 49415U 21104H   22220.47044582  .00002692  00000-0  18715-3 0  9997,2 49415  53.2178 336.4430 0001810  50.0285 310.0866 15.08849295 41116,6917.852,95.437,540.969,538.465,0.0
49415.0,STARLINK-3159,PAYLOAD,2022-08-08 19:14:22,15.08865928,0.0001879,53.217,334.9559,50.1378,309.9779,0.00077,0.00011996,0.0,0 STARLINK-3159,1 49415U 21104H   22220.80164496  .00011996  00000-0  77000-3 0  9990,2 49415  53.2170 334.9559 0001879  50.1378 309.9779 15.08865928 41168,6917.801,95.436,540.966,538.366,0.0
49415.0,STARLINK-3159,PAYLOAD,2022-08-09 09:32:49,15.08861021,0.0001631,53.2178,332.2797,54.06399999999999,306.0503,0.0003976,6.049e-05,0.0,0 STARLINK-3159,1 49415U 21104H   22221.39780030  .00006049  00000-0  39760-3 0  9997,2 49415  53.2178 332.2797 0001631  54.0640 306.0503 15.08861021 42346,6917.816,95.436,540.809,538.553,0.0
49415.0,STARLINK-3159,PAYLOAD,2022-08-09 17:29:46,15.08852651,0.0002295999999999,53.2182,330.7963,44.1412,315.9763,0.00040202,6.118e-05,0.0,0 STARLINK-3159,1 49415U 21104H   22221.72900519  .00006118  00000-0  40202-3 0  9990,2 49415  53.2182 330.7963 0002296  44.1412 315.9763 15.08852651 42395,6917.842,95.437,541.295,538.118,0.0
49415.0,STARLINK-3159,PAYLOAD,2022-08-09 23:51:18,15.0882539,0.0001705,53.2175,329.6033,46.5621,313.5513,-0.00021917,-3.773e-05,0.0,0 STARLINK-3159,1 49415U 21104H   22221.99396436 -.00003773  00000-0 -21917-3 0  9994,2 49415  53.2175 329.6033 0001705  46.5621 313.5513 15.08825390 41345,6917.925,95.438,540.97,538.611,0.0
49415.0,STARLINK-3159,PAYLOAD,2022-08-10 18:55:57,15.08808899,0.0001574,53.2174,326.0351,42.9344,317.177,0.00064828,0.00010036,0.0,0 STARLINK-3159,1 49415U 21104H   22222.78886555  .00010036  00000-0  64828-3 0  9994,2 49415  53.2174 326.0351 0001574  42.9344 317.1770 15.08808899 41467,6917.975,95.44,540.929,538.752,0.0
49415.0,STARLINK-3159,PAYLOAD,2022-08-11 12:25:13,15.0881879,0.0001833,53.2168,322.7652,44.1,316.0138,0.00028932,4.317e-05,0.0,0 STARLINK-3159,1 49415U 21104H   22223.51751698  .00004317  00000-0  28932-3 0  9996,2 49415  53.2168 322.7652 0001833  44.1000 316.0138 15.08818790 41577,6917.945,95.439,541.078,538.5419999999998,0.0
49415.0,STARLINK-3159,PAYLOAD,2022-08-12 12:16:00,15.08848213,0.0001764,53.2164,318.3041,47.5911,312.523,0.00068944,0.00010704,0.0,0 STARLINK-3159,1 49415U 21104H   22224.51111762  .00010704  00000-0  68944-3 0  9993,2 49415  53.2164 318.3041 0001764  47.5911 312.5230 15.08848213 42812,6917.855,95.437,540.941,538.5,0.0
49415.0,STARLINK-3159,PAYLOAD,2022-08-12 13:51:23,15.08851193,0.0001766,53.2163,318.0068,47.4436,312.6705,0.00073082,0.00011366,0.0,0 STARLINK-3159,1 49415U 21104H   22224.57735705  .00011366  00000-0  73082-3 0  9992,2 49415  53.2163 318.0068 0001766  47.4436 312.6705 15.08851193 41739,6917.846,95.437,540.933,538.489,0.0
49415.0,STARLINK-3159,PAYLOAD,2022-08-12 18:37:33,15.0882103,0.000246,53.2162,317.1148,42.8535,317.2649,-0.00032972,-5.53e-05,0.0,0 STARLINK-3159,1 49415U 21104H   22224.77608648 -.00005530  00000-0 -32972-3 0  9990,2 49415  53.2162 317.1148 0002460  42.8535 317.2649 15.08821030 41766,6917.938,95.439,541.505,538.102,0.0
49415.0,STARLINK-3159,PAYLOAD,2022-08-13 13:42:12,15.08836246,0.0002839,53.2163,313.548,34.2942,325.8233,0.00092625,0.00014483,0.0,0 STARLINK-3159,1 49415U 21104H   22225.57097506  .00014483  00000-0  92625-3 0  9990,2 49415  53.2163 313.5480 0002839  34.2942 325.8233 15.08836246 41885,6917.892,95.438,541.721,537.793,0.0
49415.0,STARLINK-3159,PAYLOAD,2022-08-13 18:28:21,15.08848736,0.0001884,53.2156,312.6545,39.3926,320.7203,0.0012795999999999,0.0002014,0.0,0 STARLINK-3159,1 49415U 21104H   22225.76969083  .00020140  00000-0  12796-2 0  9996,2 49415  53.2156 312.6545 0001884  39.3926 320.7203 15.08848736 43000,6917.854,95.437,541.0219999999998,538.415,0.0
49415.0,STARLINK-3159,PAYLOAD,2022-08-14 11:57:35,15.08870431,0.0002128,53.2156,309.3838,37.241,322.873,0.0011646,0.00018311,0.0,0 STARLINK-3159,1 49415U 21104H   22226.49832313  .00018311  00000-0  11646-2 0  9992,2 49415  53.2156 309.3838 0002128  37.2410 322.8730 15.08870431 42021,6917.7869999999975,95.436,541.124,538.18,0.0
49415.0,STARLINK-3159,PAYLOAD,2022-08-14 16:43:44,15.08858402,0.0002648,53.2159,308.4925,34.4589,325.6575,0.00097467,0.00015266,0.0,0 STARLINK-3159,1 49415U 21104H   22226.69704305  .00015266  00000-0  97467-3 0  9995,2 49415  53.2159 308.4925 0002648  34.4589 325.6575 15.08858402 43140,6917.824000000001,95.436,541.521,537.857,0.0
49415.0,STARLINK-3159,PAYLOAD,2022-08-15 05:26:49,15.088563,0.0002233,53.2161,306.112,40.5472,319.5686,0.00022083,3.2299999999999986e-05,0.0,0 STARLINK-3159,1 49415U 21104H   22227.22695799  .00003230  00000-0  22083-3 0  9991,2 49415  53.2161 306.1120 0002233  40.5472 319.5686 15.08856300 43223,6917.831,95.437,541.24,538.151,0.0
49415.0,STARLINK-3159,PAYLOAD,2022-08-15 08:37:35,15.08856223,0.0002098,53.2152,305.5178,39.1308,320.9836,0.00021215,3.091e-05,0.0,0 STARLINK-3159,1 49415U 21104H   22227.35943617  .00003091  00000-0  21215-3 0  9991,2 49415  53.2152 305.5178 0002098  39.1308 320.9836 15.08856223 42158,6917.831,95.437,541.1469999999998,538.244,0.0
49415.0,STARLINK-3159,PAYLOAD,2022-08-15 16:34:31,15.08847337,0.0002218999999999,53.2149,304.0319,37.1633,322.9512,-9.6674e-06,-4.42e-06,0.0,0 STARLINK-3159,1 49415U 21104H   22227.69063791 -.00000442  00000-0 -96674-5 0  9996,2 49415  53.2149 304.0319 0002219  37.1633 322.9512 15.08847337 43294,6917.858,95.437,541.258,538.188,0.0
49415.0,STARLINK-3159,PAYLOAD,2022-08-16 11:39:08,15.08851971,0.0002234,53.2154,300.4626,42.8041,317.3124,0.00010245,1.343e-05,0.0,0 STARLINK-3159,1 49415U 21104H   22228.48551317  .00001343  00000-0  10245-3 0  9997,2 49415  53.2154 300.4626 0002234  42.8041 317.3124 15.08851971 42323,6917.844,95.437,541.254,538.163,0.0
49415.0,STARLINK-3159,PAYLOAD,2022-08-17 05:08:22,15.08850444,0.0002517,53.2152,297.1926,40.9564,319.1617,0.00011354,1.52e-05,0.0,0 STARLINK-3159,1 49415U 21104H   22229.21415122  .00001520  00000-0  11354-3 0  9991,2 49415  53.2152 297.1926 0002517  40.9564 319.1617 15.08850444 43523,6917.848000000001,95.437,541.455,537.972,0.0
49415.0,STARLINK-3159,PAYLOAD,2022-08-17 13:05:18,15.08846925,0.0002268,53.2159,295.7042,45.3446,314.7731,1.0513e-05,-1.21e-06,0.0,0 STARLINK-3159,1 49415U 21104H   22229.54535106 -.00000121  00000-0  10513-4 0  9996,2 49415  53.2159 295.7042 0002268  45.3446 314.7731 15.08846925 42485,6917.859,95.437,541.293,538.155,0.0
49415.0,STARLINK-3159,PAYLOAD,2022-08-18 11:20:42,15.08840849,0.0002214,53.2167,291.5408,45.8297,314.2877,1.4508e-05,-5.7e-07,0.0,0 STARLINK-3159,1 49415U 21104H   22230.47271445 -.00000057  00000-0  14508-4 0  9999,2 49415  53.2167 291.5408 0002214  45.8297 314.2877 15.08840849 42625,6917.878000000002,95.438,541.274,538.211,0.0
49415.0,STARLINK-3159,PAYLOAD,2022-08-18 16:06:51,15.08841337,0.0002244,53.2166,290.6488,44.9905,315.1269,8.4072e-06,-1.55e-06,0.0,0 STARLINK-3159,1 49415U 21104H   22230.67143331 -.00000155  00000-0  84072-5 0  9996,2 49415  53.2166 290.6488 0002244  44.9905 315.1269 15.08841337 42652,6917.876,95.437,541.294,538.189,0.0
49415.0,STARLINK-3159,PAYLOAD,2022-08-19 11:11:28,15.0884668,0.0002275,53.2164,287.0804,42.0853,318.0314,0.00011808,1.592e-05,0.0,0 STARLINK-3159,1 49415U 21104H   22231.46630449  .00001592  00000-0  11808-3 0  9995,2 49415  53.2164 287.0804 0002275  42.0853 318.0314 15.08846680 42779,6917.86,95.437,541.299,538.151,0.0
